TOMORROW-S3             
1 62392U 24247R   26068.49782200  .00007664  00000+0  28858-3 0  9991
2 62392  44.9999 117.9871 0000396 320.9462  39.1392 15.27672122 67708
STARLINK-36489          
1 67328U 26002Z   26068.40754195  .00023582  00000+0  86387-3 0  9997
2 67328  42.9947 327.0375 0000369 316.9238  43.1584 15.27574438 11193
