[{"OBJECT_NAME":"TOMORROW-S3","OBJECT_ID":"2024-247R","EPOCH":"2026-03-09T11:56:51.820800","MEAN_MOTION":15.27672122,"ECCENTRICITY":3.967e-5,"INCLINATION":44.9999,"RA_OF_ASC_NODE":117.9871,"ARG_OF_PERICENTER":320.9462,"MEAN_ANOMALY":39.1392,"EPHEMERIS_TYPE":0,"CLASSIFICATION_TYPE":"U","NORAD_CAT_ID":62392,"ELEMENT_SET_NO":999,"REV_AT_EPOCH":6770,"BSTAR":0.00028857954,"MEAN_MOTION_DOT":7.664e-5,"MEAN_MOTION_DDOT":0},{"OBJECT_NAME":"STARLINK-36489","OBJECT_ID":"2026-002Z","EPOCH":"2026-03-09T09:46:51.624480","MEAN_MOTION":15.27574438,"ECCENTRICITY":3.691e-5,"INCLINATION":42.9947,"RA_OF_ASC_NODE":327.0375,"ARG_OF_PERICENTER":316.9238,"MEAN_ANOMALY":43.1584,"EPHEMERIS_TYPE":0,"CLASSIFICATION_TYPE":"U","NORAD_CAT_ID":67328,"ELEMENT_SET_NO":999,"REV_AT_EPOCH":1119,"BSTAR":0.00086386729,"MEAN_MOTION_DOT":0.00023582,"MEAN_MOTION_DDOT":0}]
